NORAD_CAT_ID,OBJECT_NAME,OBJECT_TYPE,EPOCH,MEAN_MOTION,ECCENTRICITY,INCLINATION,RA_OF_ASC_NODE,ARG_OF_PERICENTER,MEAN_ANOMALY,BSTAR,MEAN_MOTION_DOT,MEAN_MOTION_DDOT,TLE_LINE0,TLE_LINE1,TLE_LINE2,SEMIMAJOR_AXIS,PERIOD,APOGEE,PERIGEE,DECAYED
55947.0,STARLINK-5851,PAYLOAD,2023-05-06 20:48:56,15.69936115,0.0003961,69.9975,40.2066,266.4246,93.6496,4.2422e-06,2.97e-06,0.0,0 STARLINK-5851,1 55947U 23037AK  23126.86731715  .00000297  00000-0  42422-5 0  9994,2 55947  69.9975  40.2066 0003961 266.4246  93.6496 15.69936115  8397,6737.217,91.723,361.75,356.413,0.0
55947.0,STARLINK-5851,PAYLOAD,2023-05-07 04:27:43,15.69906386,0.000342,69.9995,39.3135,269.2478,90.8326,-1.2085e-05,-1.665e-05,0.0,0 STARLINK-5851,1 55947U 23037AK  23127.18592455 -.00001665  00000-0 -12085-4 0  9999,2 55947  69.9995  39.3135 0003420 269.2478  90.8326 15.69906386  8447,6737.302,91.725,361.471,356.863,0.0
55947.0,STARLINK-5851,PAYLOAD,2023-05-07 21:16:59,15.69925955,0.0004161,69.9987,37.342,274.5551,85.5169,-7.0817e-06,-1.065e-05,0.0,0 STARLINK-5851,1 55947U 23037AK  23127.88679725 -.00001065  00000-0 -70817-5 0  9994,2 55947  69.9987  37.3420 0004161 274.5551  85.5169 15.69925955  8558,6737.246,91.724,361.914,356.307,0.0
55947.0,STARLINK-5851,PAYLOAD,2023-05-08 03:23:58,15.6993842,0.0003727,69.999,36.6258,267.1315,92.9454,6.469e-06,5.65e-06,0.0,0 STARLINK-5851,1 55947U 23037AK  23128.14165184  .00000565  00000-0  64690-5 0  9997,2 55947  69.9990  36.6258 0003727 267.1315  92.9454 15.69938420  8590,6737.21,91.723,361.586,356.564,0.0
55947.0,STARLINK-5851,PAYLOAD,2023-05-08 11:02:45,15.69922889,0.0003607,69.9976,35.7299,267.8293,92.2489,1.6141e-06,-1.9e-07,0.0,0 STARLINK-5851,1 55947U 23037AK  23128.46024510 -.00000019  00000-0  16141-5 0  9992,2 55947  69.9976  35.7299 0003607 267.8293  92.2489 15.69922889  8647,6737.255,91.724,361.55,356.689,0.0
55947.0,STARLINK-5851,PAYLOAD,2023-05-08 20:13:16,15.69923926,0.000313,70.0003,34.6554,252.6896,107.3958,-6.6384e-06,-1.011e-05,0.0,0 STARLINK-5851,1 55947U 23037AK  23128.84254766 -.00001011  00000-0 -66384-5 0  9990,2 55947  70.0003  34.6554 0003130 252.6896 107.3958 15.69923926  8366,6737.252,91.724,361.225,357.008,0.0
55947.0,STARLINK-5851,PAYLOAD,2023-05-09 03:52:01,15.69931735,0.0003624,69.999,33.7596,263.3654,96.7129,-1.1325e-05,-1.575e-05,0.0,0 STARLINK-5851,1 55947U 23037AK  23129.16112635 -.00001575  00000-0 -11325-4 0  9993,2 55947  69.9990  33.7596 0003624 263.3654  96.7129 15.69931735  8417,6737.229,91.724,361.536,356.653,0.0
55947.0,STARLINK-5851,PAYLOAD,2023-05-10 02:48:17,15.699467,0.0003714,69.9989,31.073,269.667,90.41,1.638e-05,1.759e-05,0.0,0 STARLINK-5851,1 55947U 23037AK  23130.11686958  .00001759  00000-0  16380-4 0  9992,2 55947  69.9989  31.0730 0003714 269.6670  90.4100 15.69946700  8567,6737.186,91.723,361.554,356.549,0.0
55947.0,STARLINK-5851,PAYLOAD,2023-05-10 18:05:49,15.69924795,0.0003254,69.9996,29.2823,270.3939,89.6884,2.0382e-05,2.239e-05,0.0,0 STARLINK-5851,1 55947U 23037AK  23130.75404900  .00002239  00000-0  20382-4 0  9998,2 55947  69.9996  29.2823 0003254 270.3939  89.6884 15.69924795  9002,6737.249,91.724,361.306,356.922,0.0
55947.0,STARLINK-5851,PAYLOAD,2023-05-10 19:37:34,15.69925964,0.0003329,69.9995,29.1023,268.5698,91.5117,2.1739e-05,2.402e-05,0.0,0 STARLINK-5851,1 55947U 23037AK  23130.81776388  .00002402  00000-0  21739-4 0  9996,2 55947  69.9995  29.1023 0003329 268.5698  91.5117 15.69925964  8678,6737.246,91.724,361.354,356.868,0.0
55947.0,STARLINK-5851,PAYLOAD,2023-05-11 03:16:21,15.69911191,0.0003602,69.9991,28.2071,266.4846,93.5938,-1.0302e-05,-1.451e-05,0.0,0 STARLINK-5851,1 55947U 23037AK  23131.13636100 -.00001451  00000-0 -10302-4 0  9998,2 55947  69.9991  28.2071 0003602 266.4846  93.5938 15.69911191  8729,6737.288,91.725,361.58,356.726,0.0
55947.0,STARLINK-5851,PAYLOAD,2023-05-11 23:09:06,15.69948359,0.0003753,69.9986,25.8782,268.5109,91.5657,7.8919e-06,7.37e-06,0.0,0 STARLINK-5851,1 55947U 23037AK  23131.96465477  .00000737  00000-0  78919-5 0  9999,2 55947  69.9986  25.8782 0003753 268.5109  91.5657 15.69948359  9191,6737.182,91.723,361.575,356.518,0.0
55947.0,STARLINK-5851,PAYLOAD,2023-05-12 02:12:36,15.69941973,0.0003892,69.9983,25.5186,264.0788,95.9964,9.5023e-06,9.31e-06,0.0,0 STARLINK-5851,1 55947U 23037AK  23132.09209092  .00000931  00000-0  95023-5 0  9994,2 55947  69.9983  25.5186 0003892 264.0788  95.9964 15.69941973  8879,6737.2,91.723,361.687,356.443,0.0
55947.0,STARLINK-5851,PAYLOAD,2023-05-12 19:01:54,15.69926402,0.0003408,69.9991,23.5483,259.934,100.1471,-5.0976e-06,-8.26e-06,0.0,0 STARLINK-5851,1 55947U 23037AK  23132.79298696 -.00000826  00000-0 -50976-5 0  9992,2 55947  69.9991  23.5483 0003408 259.9340 100.1471 15.69926402  9329,6737.245,91.724,361.406,356.814,0.0
55947.0,STARLINK-5851,PAYLOAD,2023-05-13 02:40:39,15.69932527,0.0003078,69.9999,22.6532,264.5276,95.5569,8.502e-07,-1.1e-06,0.0,0 STARLINK-5851,1 55947U 23037AK  23133.11156478 -.00000110  00000-0  85020-6 0  9994,2 55947  69.9999  22.6532 0003078 264.5276  95.5569 15.69932527  9370,6737.227,91.724,361.166,357.018,0.0
55947.0,STARLINK-5851,PAYLOAD,2023-05-13 19:29:54,15.69946563,0.0002967,70.0002,20.6828,228.0105,132.0838,9.2389e-06,8.99e-06,0.0,0 STARLINK-5851,1 55947U 23037AK  23133.81243895  .00000899  00000-0  92389-5 0  9999,2 55947  70.0002  20.6828 0002967 228.0105 132.0838 15.69946563  9142,6737.187,91.723,361.051,357.053,0.0
55947.0,STARLINK-5851,PAYLOAD,2023-05-14 01:36:54,15.69958245,0.0003279,69.9994,19.9657,259.7125,100.3701,2.4652e-05,2.756e-05,0.0,0 STARLINK-5851,1 55947U 23037AK  23134.06729377  .00002756  00000-0  24652-4 0  9992,2 55947  69.9994  19.9657 0003279 259.7125 100.3701 15.69958245  9529,6737.153,91.722,361.228,356.809,0.0
55947.0,STARLINK-5851,PAYLOAD,2023-05-14 19:57:58,15.69915082,0.0003067,70.0002,17.8203,253.53,106.5559,-1.1498e-06,-3.51e-06,0.0,0 STARLINK-5851,1 55947U 23037AK  23134.83192547 -.00000351  00000-0 -11498-5 0  9996,2 55947  70.0002  17.8203 0003067 253.5300 106.5559 15.69915082  9305,6737.277,91.725,361.208,357.076,0.0
55947.0,STARLINK-5851,PAYLOAD,2023-05-14 23:01:28,15.69915053,0.000316,69.9994,17.4601,259.4368,100.6471,-5.9414e-06,-9.27e-06,0.0,0 STARLINK-5851,1 55947U 23037AK  23134.95936047 -.00000927  00000-0 -59414-5 0  9999,2 55947  69.9994  17.4601 0003160 259.4368 100.6471 15.69915053  9668,6737.277,91.725,361.271,357.013,0.0
55947.0,STARLINK-5851,PAYLOAD,2023-05-15 09:43:43,15.69930977,0.0003162,69.9986,16.2043,277.2825,82.8011,-1.2837e-05,-1.756e-05,0.0,0 STARLINK-5851,1 55947U 23037AK  23135.40537030 -.00001756  00000-0 -12837-4 0  9997,2 55947  69.9986  16.2043 0003162 277.2825  82.8011 15.69930977  9735,6737.231,91.724,361.227,356.966,0.0
55947.0,STARLINK-5851,PAYLOAD,2023-05-15 17:22:29,15.69936151,0.0003261,69.9985,15.3086,262.8873,97.1952,-1.6744e-05,-2.226e-05,0.0,0 STARLINK-5851,1 55947U 23037AK  23135.72395375 -.00002226  00000-0 -16744-4 0  9990,2 55947  69.9985  15.3086 0003261 262.8873  97.1952 15.69936151  9445,6737.217,91.723,361.279,356.885,0.0
55947.0,STARLINK-5851,PAYLOAD,2023-05-16 14:47:01,15.69917994,0.0003251,69.9988,12.8007,270.2608,89.8216,2.6524e-05,2.977e-05,0.0,0 STARLINK-5851,1 55947U 23037AK  23136.61598768  .00002977  00000-0  26524-4 0  9998,2 55947  69.9988  12.8007 0003251 270.2608  89.8216 15.69917994  9581,6737.269,91.725,361.324,356.943,0.0
55947.0,STARLINK-5851,PAYLOAD,2023-05-16 22:25:47,15.69918084,0.000319,69.9988,11.9044,266.0264,94.0567,2.4404e-05,2.722e-05,0.0,0 STARLINK-5851,1 55947U 23037AK  23136.93457280  .00002722  00000-0  24404-4 0  9999,2 55947  69.9988  11.9044 0003190 266.0264  94.0567 15.69918084  9976,6737.268,91.725,361.283,356.984,0.0
55947.0,STARLINK-5851,PAYLOAD,2023-05-16 23:56:39,15.70638153,0.0005903,69.9999,11.7256,253.0411,107.0139,0.00081483,0.00102002,0.0,0 STARLINK-5851,1 55947U 23037AK  23136.99767914  .00102002  00000-0  81483-3 0  9994,2 55947  69.9999  11.7256 0005903 253.0411 107.0139 15.70638153  9984,6735.209,91.682,361.05,353.098,0.0
55947.0,STARLINK-5851,PAYLOAD,2023-05-17 14:00:01,15.69917501,0.0003598,70.0009,10.0805,265.637,160.0829,0.00020118,0.00024041,0.0,0 STARLINK-5851,1 55947U 23037AK  23137.58335648  .00024041  00000-0  20118-3 0  9999,2 55947  70.0009  10.0805 0003598 265.6370 160.0829 15.69917501 10074,6737.27,91.725,361.559,356.711,0.0
55947.0,STARLINK-5851,PAYLOAD,2023-05-17 18:18:34,15.69908862,0.0003101,70.0019,9.5784,227.2107,132.8828,4.1845e-06,2.9e-06,0.0,0 STARLINK-5851,1 55947U 23037AK  23137.76289756  .00000290  00000-0  41845-5 0  9999,2 55947  70.0019   9.5784 0003101 227.2107 132.8828 15.69908862 10106,6737.295,91.725,361.249,357.071,0.0
55947.0,STARLINK-5851,PAYLOAD,2023-05-18 01:57:19,15.69925917,0.0003397,69.9984,8.6803,264.4282,95.6526,6.1137e-06,5.22e-06,0.0,0 STARLINK-5851,1 55947U 23037AK  23138.08147276  .00000522  00000-0  61137-5 0  9999,2 55947  69.9984   8.6803 0003397 264.4282  95.6526 15.69925917 10156,6737.246,91.724,361.4,356.822,0.0
55947.0,STARLINK-5851,PAYLOAD,2023-05-18 14:11:20,15.6992434,0.000337,69.9983,7.2472,263.964,96.1171,6.8954e-06,6.16e-06,0.0,0 STARLINK-5851,1 55947U 23037AK  23138.59120677  .00000616  00000-0  68954-5 0  9999,2 55947  69.9983   7.2472 0003370 263.9640  96.1171 15.69924340  9895,6737.25,91.724,361.386,356.845,0.0
55947.0,STARLINK-5851,PAYLOAD,2023-05-18 15:43:05,15.69924063,0.0003347,69.9985,7.0677,265.1245,94.9569,5.62e-06,4.63e-06,0.0,0 STARLINK-5851,1 55947U 23037AK  23138.65492408  .00000463  00000-0  56200-5 0  9991,2 55947  69.9985   7.0677 0003347 265.1245  94.9569 15.69924063  9902,6737.251,91.724,361.371,356.861,0.0
55947.0,STARLINK-5851,PAYLOAD,2023-05-19 19:14:38,15.69917832,0.0003325,69.9981,3.8431,277.1871,82.8946,2.4753e-06,8.5e-07,0.0,0 STARLINK-5851,1 55947U 23037AK  23139.80183178  .00000085  00000-0  24753-5 0  9998,2 55947  69.9981   3.8431 0003325 277.1871  82.8946 15.69917832 10086,6737.269,91.725,361.374,356.894,0.0
